LIZZIESAT-2 (LS-2)      
1 62383U 24247G   26068.49140277  .00009388  00000+0  34517-3 0  9997
2 62383  44.9909 117.0823 0004092 327.5136  32.5495 15.28222796 67716
STARLINK-35382          
1 66019U 25232Q   26068.49441609  .00027547  00000+0  93907-3 0  9990
2 66019  53.1592 104.9559 0001326  86.2334 273.8819 15.30189182 23405
